COSMOS 2473             
1 37806U 11048A   16012.46858213 -.00000136  00000-0  00000+0 0  9995
2 37806   0.0454  69.6780 0001342 300.1519 350.1635  1.00272547 15887
SES-2                   
1 37809U 11049A   16012.55510796 -.00000197  00000-0  00000+0 0  9997
2 37809   0.0270 317.8190 0002217 311.5270 314.9704  1.00271318 15825
ARABSAT-5C              
1 37810U 11049B   16012.65627230  .00000122  00000-0  00000+0 0  9999
2 37810   0.0619   8.5081 0002724 263.7233  95.5526  1.00271596 15728
EUTELSAT 7 WEST A       
1 37816U 11051A   16012.71002540 -.00000062  00000-0  00000+0 0  9990
2 37816   0.0595  12.1814 0004623 265.3552  82.4012  1.00271229 15788
QUETZSAT 1              
1 37826U 11054A   16013.12482484 -.00000244  00000-0  00000+0 0  9991
2 37826   0.0180 351.1597 0002817 311.3747 137.4415  1.00270919 15912
INTELSAT 18 (IS-18)     
1 37834U 11056A   16012.81709828  .00000051  00000-0  00000+0 0  9996
2 37834   0.0181  33.2728 0002003 274.5188 278.1022  1.00267939 15669
EUTELSAT 16A            
1 37836U 11057A   16012.72405008  .00000102  00000-0  00000+0 0  9999
2 37836   0.0622   9.3695 0004825 285.8542  93.0605  1.00270909 15607
VIASAT-1                
1 37843U 11059A   16012.88662477 -.00000025  00000-0  00000+0 0  9996
2 37843   0.0223  46.9930 0002291 243.1822  25.7170  1.00269798 16080
ASIASAT 7               
1 37933U 11069A   16012.96299259 -.00000336  00000-0  00000+0 0  9995
2 37933   0.0162  40.1303 0001688 202.2593 321.6779  1.00272289 15285
BEIDOU IGSO 5           
1 37948U 11073A   16013.00329708 -.00000164  00000-0  10000-3 0  9999
2 37948  53.8598 316.7693 0037506 206.1901  43.7040  1.00289940 15216
LUCH 5A                 
1 37951U 11074B   16012.39373013 -.00000046  00000-0  00000+0 0  9997
2 37951   1.9165 224.7914 0002558  56.6086 138.5466  1.00271770 14990
NIGCOMSAT 1R            
1 38014U 11077A   16012.81960176  .00000143  00000-0  00000+0 0  9997
2 38014   0.0307 122.6019 0003446 143.2824 183.3703  1.00271277 14849
FENGYUN 2F              
1 38049U 12002A   16012.59760220 -.00000358  00000-0  00000+0 0  9996
2 38049   0.6740  71.3990 0000166 173.4304 193.8479  1.00271965 14701
SES-4                   
1 38087U 12007A   16012.20059831 -.00000169  00000-0  00000+0 0  9990
2 38087   0.0168  13.3445 0002615 263.2596 244.7276  1.00271862 14295
BEIDOU G5               
1 38091U 12008A   16013.15063699  .00000055  00000-0  00000+0 0  9991
2 38091   1.4088  42.2842 0002494 211.8325 330.8229  1.00270767 14290
INTELSAT 22 (IS-22)     
1 38098U 12011A   16011.49289702 -.00000057  00000-0  00000+0 0  9995
2 38098   0.0202 357.4792 0002254 295.1127  67.3768  1.00271061 13853
APSTAR 7                
1 38107U 12013A   16012.90491981 -.00000103  00000-0  00000+0 0  9991
2 38107   0.0361  57.7542 0002598 242.1493 214.1786  1.00271777 13982
YAHSAT 1B               
1 38245U 12016A   16012.55797233  .00000126  00000-0  00000+0 0  9991
2 38245   0.0148  18.7035 0002556 253.3701  87.8972  1.00263185 13731
JCSAT-13                
1 38331U 12023A   16012.94563369 -.00000358  00000-0  00000+0 0  9997
2 38331   0.0122  28.8051 0001837 289.2010 258.2808  1.00270306 13387
VINASAT-2               
1 38332U 12023B   16012.66043301 -.00000330  00000-0  00000+0 0  9996
2 38332   0.0322 291.3458 0002216  18.7396 171.0798  1.00270773 13436
NIMIQ 6                 
1 38342U 12026A   16011.94500541 -.00000173  00000-0  00000+0 0  9999
2 38342   0.0312 293.9133 0002435 357.6167  68.4357  1.00271175 13402
CHINASAT 2A (ZX 2A)     
1 38352U 12028A   16012.06751991 -.00000293  00000-0  00000+0 0  9996
2 38352   0.0553 198.5236 0004949 126.5401 268.5114  1.00271487 13444
INTELSAT 19 (IS-19)     
1 38356U 12030A   16012.22997729 -.00000057  00000-0  00000+0 0  9990
2 38356   0.0355  30.2615 0003012 264.7255  64.9817  1.00269789 13320
ECHOSTAR 17             
1 38551U 12035A   16012.98659290 -.00000078  00000-0  00000+0 0  9996
2 38551   0.0233  49.6228 0002717 235.7961  74.5511  1.00275500 12942
METEOSAT-10 (MSG-3)     
1 38552U 12035B   16012.69058016 -.00000006  00000-0  00000+0 0  9995
2 38552   0.4726  87.1298 0001086 195.3229  77.5253  1.00275399 13037
SES-5                   
1 38652U 12036A   16012.20120052  .00000034  00000-0  00000+0 0  9994
2 38652   0.0513 258.5459 0001456  44.7564 245.2403  1.00272521 12877
TIANLIAN 1-03           
1 38730U 12040A   16012.64350510  .00000107  00000-0  00000+0 0  9999
2 38730   0.0099 242.1642 0002620  45.9543  71.8434  1.00272703 12802
INTELSAT 20 (IS-20)     
1 38740U 12043A   16012.50013576 -.00000025  00000-0  00000+0 0  9996
2 38740   0.0228  40.4061 0001252 143.8944 175.6984  1.00269358 12641
HYLAS 2                 
1 38741U 12043B   16012.60385097  .00000153  00000-0  00000+0 0  9999
2 38741   0.0597 261.1982 0001597  24.3880  74.3867  1.00276296 12665
INTELSAT 21 (IS-21)     
1 38749U 12045A   16011.23122865 -.00000283  00000-0  00000+0 0  9994
2 38749   0.0158  30.7427 0002095 269.5888 195.0874  1.00271204 12433
ASTRA 2F                
1 38778U 12051A   16011.61446281  .00000151  00000-0  00000+0 0  9999
2 38778   0.0890 246.6852 0003703   2.4222 110.8452  1.00268826 12096
GSAT-10                 
1 38779U 12051B   16011.46262323 -.00000164  00000-0  00000+0 0  9991
2 38779   0.0744 260.5344 0002187 359.3660 100.0675  1.00271838 12096
INTELSAT 23 (IS-23)     
1 38867U 12057A   16011.40920694 -.00000283  00000-0  00000+0 0  9993
2 38867   0.0388 267.5919 0001298  44.8943 252.1712  1.00270859 11918
BEIDOU G6               
1 38953U 12059A   16012.82518102 -.00000139  00000-0  10000-3 0  9990
2 38953   0.5995  74.8436 0003242 191.2615 222.7427  1.00272267 11865
LUCH 5B                 
1 38977U 12061A   16013.20807872 -.00000132  00000-0  00000+0 0  9995
2 38977   2.5046  78.8657 0004809 198.4755 253.4768  1.00271278 11997
YAMAL 300K              
1 38978U 12061B   16012.81398266  .00000069  00000-0  00000+0 0  9992
2 38978   0.0260 132.7407 0000096  89.0797   5.8922  1.00269790 11680
STAR ONE C3             
1 38991U 12062A   16011.53516183 -.00000248  00000-0  00000+0 0  9996
2 38991   0.0168  46.9136 0003217 254.0101 287.1928  1.00269468 11658
EUTELSAT 21B            
1 38992U 12062B   16011.63281200  .00000131  00000-0  00000+0 0  9997
2 38992   0.0618   7.8852 0002441 283.3567  68.7243  1.00270137 11679
ECHOSTAR 16             
1 39008U 12065A   16011.86302802 -.00000282  00000-0  00000+0 0  9994
2 39008   0.0219  36.7130 0002672 253.4889  69.7694  1.00274270 11613
CHINASAT 12 (ZX 12)     
1 39017U 12067A   16013.08479541 -.00000209  00000-0  00000+0 0  9996
2 39017   0.0144  65.7449 0003056 227.1537 297.1311  1.00271834 11526
EUTELSAT 70B            
1 39020U 12069A   16011.49730763 -.00000042  00000-0  00000-0 0  9997
2 39020   0.0637  27.2322 0003723 250.3515  82.3664  1.00271559 11311
YAMAL 402               
1 39022U 12070A   16012.84912391  .00000084  00000-0  10000-3 0  9999
2 39022   0.0298 283.5512 0000703  98.6203  90.1969  1.00272997 11419
SKYNET 5D               
1 39034U 12075A   16013.15219137  .00000097  00000-0  00000+0 0  9999
2 39034   0.0680   3.3274 0003691 280.7102 295.5318  1.00270974 11334
MEXSAT 3                
1 39035U 12075B   16013.00789512 -.00000028  00000-0  00000+0 0  9998
2 39035   0.0303 157.4420 0002192 128.2417  74.2818  1.00271891 11292
TDRS 11                 
1 39070U 13004A   16012.08270388  .00000097  00000-0  00000+0 0  9998
2 39070   6.0230 329.4868 0011834 281.9403  78.1028  1.00271106 10797
AMAZONAS 3              
1 39078U 13006A   16011.86155398 -.00000282  00000-0  00000+0 0  9993
2 39078   0.0176 250.2539 0004097   3.7020 105.9989  1.00270785 10777
AZERSPACE 1             
1 39079U 13006B   16012.95687166  .00000131  00000-0  00000+0 0  9990
2 39079   0.0032 327.4239 0001773 344.3984 190.5033  1.00270568 10751
EUTELSAT 117 WEST A     
1 39122U 13012A   16013.01347791 -.00000015  00000-0  00000+0 0  9993
2 39122   0.0176 296.4522 0002771 357.3820  66.1265  1.00272701 10285
ANIK G1                 
1 39127U 13014A   16011.98985263 -.00000074  00000-0  00000+0 0  9991
2 39127   0.0425 252.6927 0002745  25.0940  82.1737  1.00271464 10055
CHINASAT 11 (ZX 11)     
1 39157U 13020A   16011.40566802 -.00000290  00000-0  00000-0 0  9993
2 39157   0.0268  38.2131 0004013 207.4455 108.7395  1.00271114  9948
EUTELSAT 7B             
1 39163U 13022A   16011.67324930  .00000048  00000-0  00000+0 0  9994
2 39163   0.0345  10.0431 0004910 324.6986  25.2264  1.00270693  9803
SES-6                   
1 39172U 13026A   16013.16644725 -.00000263  00000-0  00000+0 0  9991
2 39172   0.0225 345.9776 0001659 301.0861 204.4378  1.00273140  9548
IRNSS-1A                
1 39199U 13034A   16011.88425380  .00000100  00000-0  00000+0 0  9999
2 39199  28.0357 124.2443 0021300 181.8896 178.0203  1.00269108  9451
ALPHASAT                
1 39215U 13038A   16012.71209199  .00000138  00000-0  00000+0 0  9994
2 39215   1.1243  32.5839 0001633 276.9735  83.2538  1.00274278  9082
INSAT-3D                
1 39216U 13038B   16012.46264425 -.00000156  00000-0  00000+0 0  9991
2 39216   0.0157 331.7436 0001443 312.5451  75.6952  1.00270571  9114
EUTELSAT 25B            
1 39233U 13044A   16012.61928818  .00000142  00000-0  00000+0 0  9991
2 39233   0.0470 352.4140 0001715 311.1451  56.4152  1.00269356  8713
GSAT-7                  
1 39234U 13044B   16011.48733380 -.00000076  00000-0  00000+0 0  9991
2 39234   0.0824  94.0355 0011368 184.8004  81.0273  1.00271276  8709
AMOS-4                  
1 39237U 13045A   16012.50986095  .00000005  00000-0  00000+0 0  9993
2 39237   0.0597 267.9349 0002702  38.2621  53.7686  1.00279429  8704
ASTRA 2E                
1 39285U 13056A   16011.61373406  .00000151  00000-0  00000-0 0  9998
2 39285   0.0626  45.8394 0002597 245.0367  69.0884  1.00270924  8284
SIRIUS FM-6             
1 39360U 13058A   16012.01434082 -.00000017  00000-0  00000+0 0  9998
2 39360   0.0349  39.7065 0000249 301.3662  18.9264  1.00268782  8153
